[{"OBJECT_NAME":"STARLINK-36341","OBJECT_ID":"2026-036Q","EPOCH":"2026-03-17T20:00:01.999008","MEAN_MOTION":15.50514365,"ECCENTRICITY":0.0001667,"INCLINATION":43.0004,"RA_OF_ASC_NODE":201.2227,"ARG_OF_PERICENTER":287.4377,"MEAN_ANOMALY":129.9095,"EPHEMERIS_TYPE":0,"CLASSIFICATION_TYPE":"U","NORAD_CAT_ID":67918,"ELEMENT_SET_NO":999,"REV_AT_EPOCH":495,"BSTAR":0.0016784,"MEAN_MOTION_DOT":0.00099152,"MEAN_MOTION_DDOT":0},{"OBJECT_NAME":"STARLINK-36663","OBJECT_ID":"2026-036R","EPOCH":"2026-03-17T20:00:01.999008","MEAN_MOTION":15.58971294,"ECCENTRICITY":0.0001789,"INCLINATION":43.0002,"RA_OF_ASC_NODE":200.3212,"ARG_OF_PERICENTER":288.9149,"MEAN_ANOMALY":133.6394,"EPHEMERIS_TYPE":0,"CLASSIFICATION_TYPE":"U","NORAD_CAT_ID":67919,"ELEMENT_SET_NO":999,"REV_AT_EPOCH":495,"BSTAR":-0.0261,"MEAN_MOTION_DOT":-0.01848905,"MEAN_MOTION_DDOT":0},{"OBJECT_NAME":"STARLINK-36375","OBJECT_ID":"2026-036S","EPOCH":"2026-03-17T20:00:01.999008","MEAN_MOTION":15.53047229,"ECCENTRICITY":0.0001373,"INCLINATION":43.0007,"RA_OF_ASC_NODE":200.623,"ARG_OF_PERICENTER":273.4957,"MEAN_ANOMALY":27.0079,"EPHEMERIS_TYPE":0,"CLASSIFICATION_TYPE":"U","NORAD_CAT_ID":67920,"ELEMENT_SET_NO":999,"REV_AT_EPOCH":495,"BSTAR":-0.027867,"MEAN_MOTION_DOT":-0.01607412,"MEAN_MOTION_DDOT":0},{"OBJECT_NAME":"STARLINK-36405","OBJECT_ID":"2026-036T","EPOCH":"2026-03-17T20:00:01.999008","MEAN_MOTION":15.50518886,"ECCENTRICITY":0.0002098,"INCLINATION":43.0004,"RA_OF_ASC_NODE":201.1873,"ARG_OF_PERICENTER":268.4919,"MEAN_ANOMALY":163.0937,"EPHEMERIS_TYPE":0,"CLASSIFICATION_TYPE":"U","NORAD_CAT_ID":67921,"ELEMENT_SET_NO":999,"REV_AT_EPOCH":495,"BSTAR":0.0016595,"MEAN_MOTION_DOT":0.00098032,"MEAN_MOTION_DDOT":0},{"OBJECT_NAME":"STARLINK-36383","OBJECT_ID":"2026-036U","EPOCH":"2026-03-17T18:42:21.859488","MEAN_MOTION":15.8208373,"ECCENTRICITY":0.000138,"INCLINATION":42.9979,"RA_OF_ASC_NODE":200.0361,"ARG_OF_PERICENTER":238.0369,"MEAN_ANOMALY":122.0368,"EPHEMERIS_TYPE":0,"CLASSIFICATION_TYPE":"U","NORAD_CAT_ID":67922,"ELEMENT_SET_NO":999,"REV_AT_EPOCH":495,"BSTAR":0.0012288,"MEAN_MOTION_DOT":0.00267203,"MEAN_MOTION_DDOT":0},{"OBJECT_NAME":"STARLINK-36406","OBJECT_ID":"2026-036V","EPOCH":"2026-03-17T20:00:01.999008","MEAN_MOTION":15.50522987,"ECCENTRICITY":0.0002005,"INCLINATION":43.0003,"RA_OF_ASC_NODE":201.4645,"ARG_OF_PERICENTER":281.2236,"MEAN_ANOMALY":38.1961,"EPHEMERIS_TYPE":0,"CLASSIFICATION_TYPE":"U","NORAD_CAT_ID":67923,"ELEMENT_SET_NO":999,"REV_AT_EPOCH":495,"BSTAR":0.0020782,"MEAN_MOTION_DOT":0.00123272,"MEAN_MOTION_DDOT":0},{"OBJECT_NAME":"STARLINK-36714","OBJECT_ID":"2026-036W","EPOCH":"2026-03-17T20:00:01.999008","MEAN_MOTION":15.53734844,"ECCENTRICITY":0.0001885,"INCLINATION":43.0005,"RA_OF_ASC_NODE":200.5422,"ARG_OF_PERICENTER":274.4638,"MEAN_ANOMALY":57.9525,"EPHEMERIS_TYPE":0,"CLASSIFICATION_TYPE":"U","NORAD_CAT_ID":67924,"ELEMENT_SET_NO":999,"REV_AT_EPOCH":495,"BSTAR":-0.031221,"MEAN_MOTION_DOT":-0.01820188,"MEAN_MOTION_DDOT":0},{"OBJECT_NAME":"STARLINK-36726","OBJECT_ID":"2026-036X","EPOCH":"2026-03-17T20:00:01.999008","MEAN_MOTION":15.5051557,"ECCENTRICITY":0.0001653,"INCLINATION":43.0005,"RA_OF_ASC_NODE":201.1594,"ARG_OF_PERICENTER":283.352,"MEAN_ANOMALY":159.0626,"EPHEMERIS_TYPE":0,"CLASSIFICATION_TYPE":"U","NORAD_CAT_ID":67925,"ELEMENT_SET_NO":999,"REV_AT_EPOCH":495,"BSTAR":0.001688,"MEAN_MOTION_DOT":0.00099733,"MEAN_MOTION_DDOT":0},{"OBJECT_NAME":"STARLINK-36758","OBJECT_ID":"2026-036Y","EPOCH":"2026-03-17T20:00:01.999008","MEAN_MOTION":15.50786005,"ECCENTRICITY":0.0001391,"INCLINATION":43.0004,"RA_OF_ASC_NODE":200.6811,"ARG_OF_PERICENTER":286.8006,"MEAN_ANOMALY":349.2388,"EPHEMERIS_TYPE":0,"CLASSIFICATION_TYPE":"U","NORAD_CAT_ID":67926,"ELEMENT_SET_NO":999,"REV_AT_EPOCH":495,"BSTAR":-0.0060473,"MEAN_MOTION_DOT":-0.00342552,"MEAN_MOTION_DDOT":0},{"OBJECT_NAME":"STARLINK-36728","OBJECT_ID":"2026-036Z","EPOCH":"2026-03-17T20:00:01.999008","MEAN_MOTION":15.54603276,"ECCENTRICITY":0.0001593,"INCLINATION":42.9999,"RA_OF_ASC_NODE":200.4477,"ARG_OF_PERICENTER":277.2743,"MEAN_ANOMALY":93.2143,"EPHEMERIS_TYPE":0,"CLASSIFICATION_TYPE":"U","NORAD_CAT_ID":67927,"ELEMENT_SET_NO":999,"REV_AT_EPOCH":495,"BSTAR":-0.030766,"MEAN_MOTION_DOT":-0.01848322,"MEAN_MOTION_DDOT":0},{"OBJECT_NAME":"STARLINK-36771","OBJECT_ID":"2026-036AA","EPOCH":"2026-03-17T20:00:01.999008","MEAN_MOTION":15.53229726,"ECCENTRICITY":0.0002069,"INCLINATION":43.0001,"RA_OF_ASC_NODE":200.5643,"ARG_OF_PERICENTER":282.6571,"MEAN_ANOMALY":40.6421,"EPHEMERIS_TYPE":0,"CLASSIFICATION_TYPE":"U","NORAD_CAT_ID":67928,"ELEMENT_SET_NO":999,"REV_AT_EPOCH":495,"BSTAR":-0.041456,"MEAN_MOTION_DOT":-0.02343622,"MEAN_MOTION_DDOT":0},{"OBJECT_NAME":"STARLINK-36809","OBJECT_ID":"2026-036AB","EPOCH":"2026-03-17T20:00:01.999008","MEAN_MOTION":15.53268665,"ECCENTRICITY":0.0002061,"INCLINATION":43.0002,"RA_OF_ASC_NODE":200.5414,"ARG_OF_PERICENTER":280.7737,"MEAN_ANOMALY":51.6766,"EPHEMERIS_TYPE":0,"CLASSIFICATION_TYPE":"U","NORAD_CAT_ID":67929,"ELEMENT_SET_NO":999,"REV_AT_EPOCH":495,"BSTAR":-0.041617,"MEAN_MOTION_DOT":-0.02354531,"MEAN_MOTION_DDOT":0},{"OBJECT_NAME":"STARLINK-36865","OBJECT_ID":"2026-036AC","EPOCH":"2026-03-17T20:00:01.999008","MEAN_MOTION":15.5747193,"ECCENTRICITY":0.000172,"INCLINATION":43.0006,"RA_OF_ASC_NODE":200.2564,"ARG_OF_PERICENTER":288.9182,"MEAN_ANOMALY":158.5369,"EPHEMERIS_TYPE":0,"CLASSIFICATION_TYPE":"U","NORAD_CAT_ID":67930,"ELEMENT_SET_NO":999,"REV_AT_EPOCH":495,"BSTAR":-0.027606,"MEAN_MOTION_DOT":-0.01847046,"MEAN_MOTION_DDOT":0},{"OBJECT_NAME":"STARLINK-36781","OBJECT_ID":"2026-036AD","EPOCH":"2026-03-17T20:00:01.999008","MEAN_MOTION":15.56879511,"ECCENTRICITY":0.000179,"INCLINATION":43.0004,"RA_OF_ASC_NODE":200.2994,"ARG_OF_PERICENTER":287.1847,"MEAN_ANOMALY":143.2952,"EPHEMERIS_TYPE":0,"CLASSIFICATION_TYPE":"U","NORAD_CAT_ID":67931,"ELEMENT_SET_NO":999,"REV_AT_EPOCH":495,"BSTAR":-0.028258,"MEAN_MOTION_DOT":-0.01848646,"MEAN_MOTION_DDOT":0},{"OBJECT_NAME":"STARLINK-36301","OBJECT_ID":"2026-037A","EPOCH":"2026-03-17T12:48:33.859008","MEAN_MOTION":15.82069473,"ECCENTRICITY":0.00015156,"INCLINATION":42.9978,"RA_OF_ASC_NODE":150.5065,"ARG_OF_PERICENTER":284.075,"MEAN_ANOMALY":75.9954,"EPHEMERIS_TYPE":0,"CLASSIFICATION_TYPE":"U","NORAD_CAT_ID":67932,"ELEMENT_SET_NO":999,"REV_AT_EPOCH":449,"BSTAR":0.00089574307,"MEAN_MOTION_DOT":0.00192818,"MEAN_MOTION_DDOT":0},{"OBJECT_NAME":"STARLINK-36852","OBJECT_ID":"2026-037B","EPOCH":"2026-03-17T20:00:01.999008","MEAN_MOTION":15.65296656,"ECCENTRICITY":0.0001376,"INCLINATION":42.9997,"RA_OF_ASC_NODE":148.9609,"ARG_OF_PERICENTER":283.8961,"MEAN_ANOMALY":228.3724,"EPHEMERIS_TYPE":0,"CLASSIFICATION_TYPE":"U","NORAD_CAT_ID":67933,"ELEMENT_SET_NO":999,"REV_AT_EPOCH":450,"BSTAR":-0.021517,"MEAN_MOTION_DOT":-0.01942635,"MEAN_MOTION_DDOT":0}]
