STARLINK-36341          
1 67918U 26036Q   26076.83335647  .00099152  00000+0  16784-2 0  9991
2 67918  43.0004 201.2227 0001667 287.4377 129.9095 15.50514365  4956
STARLINK-36663          
1 67919U 26036R   26076.83335647 -.01848905  00000+0 -26100-1 0  9995
2 67919  43.0002 200.3212 0001789 288.9149 133.6394 15.58971294  4957
STARLINK-36375          
1 67920U 26036S   26076.83335647 -.01607412  00000+0 -27867-1 0  9994
2 67920  43.0007 200.6230 0001373 273.4957  27.0079 15.53047229  4955
STARLINK-36405          
1 67921U 26036T   26076.83335647  .00098032  00000+0  16595-2 0  9991
2 67921  43.0004 201.1873 0002098 268.4919 163.0937 15.50518886  4952
STARLINK-36383          
1 67922U 26036U   26076.77941967  .00267203  00000+0  12288-2 0  9996
2 67922  42.9979 200.0361 0001380 238.0369 122.0368 15.82083730  4950
STARLINK-36406          
1 67923U 26036V   26076.83335647  .00123272  00000+0  20782-2 0  9991
2 67923  43.0003 201.4645 0002005 281.2236  38.1961 15.50522987  4952
STARLINK-36714          
1 67924U 26036W   26076.83335647 -.01820188  00000+0 -31221-1 0  9994
2 67924  43.0005 200.5422 0001885 274.4638  57.9525 15.53734844  4958
STARLINK-36726          
1 67925U 26036X   26076.83335647  .00099733  00000+0  16880-2 0  9991
2 67925  43.0005 201.1594 0001653 283.3520 159.0626 15.50515570  4954
STARLINK-36758          
1 67926U 26036Y   26076.83335647 -.00342552  00000+0 -60473-2 0  9991
2 67926  43.0004 200.6811 0001391 286.8006 349.2388 15.50786005  4957
STARLINK-36728          
1 67927U 26036Z   26076.83335647 -.01848322  00000+0 -30766-1 0  9990
2 67927  42.9999 200.4477 0001593 277.2743  93.2143 15.54603276  4958
STARLINK-36771          
1 67928U 26036AA  26076.83335647 -.02343622  00000+0 -41456-1 0  9993
2 67928  43.0001 200.5643 0002069 282.6571  40.6421 15.53229726  4957
STARLINK-36809          
1 67929U 26036AB  26076.83335647 -.02354531  00000+0 -41617-1 0  9994
2 67929  43.0002 200.5414 0002061 280.7737  51.6766 15.53268665  4959
STARLINK-36865          
1 67930U 26036AC  26076.83335647 -.01847046  00000+0 -27606-1 0  9995
2 67930  43.0006 200.2564 0001720 288.9182 158.5369 15.57471930  4954
STARLINK-36781          
1 67931U 26036AD  26076.83335647 -.01848646  00000+0 -28258-1 0  9997
2 67931  43.0004 200.2994 0001790 287.1847 143.2952 15.56879511  4951
STARLINK-36301          
1 67932U 26037A   26076.53372522  .00192818  00000+0  89574-3 0  9999
2 67932  42.9978 150.5065 0001515 284.0750  75.9954 15.82069473  4499
STARLINK-36852          
1 67933U 26037B   26076.83335647 -.01942635  00000+0 -21517-1 0  9994
2 67933  42.9997 148.9609 0001376 283.8961 228.3724 15.65296656  4509
